BEIJING 1               
1 28890U 05043A   17285.37203816  .00000010  00000-0  10910-4 0  9998
2 28890  97.8937  75.9070 0016146 137.8219 222.4242 14.61194286637533
HJ-1A                   
1 33320U 08041A   17285.39472511  .00000184  00000-0  33472-4 0  9995
2 33320  97.9241 348.1126 0026618  10.6966 349.4800 14.76839001490089
HJ-1B                   
1 33321U 08041B   17285.25919749  .00000209  00000-0  36761-4 0  9992
2 33321  97.9289 349.2770 0035453  26.2137 334.0854 14.76919283490056
YAOGAN 4                
1 33446U 08061A   17285.40592867  .00000188  00000-0  33597-4 0  9997
2 33446  97.6024 275.5698 0014418 281.4383  78.5209 14.76703136477321
DEIMOS-1                
1 35681U 09041A   17285.35004215 -.00000035  00000-0  20406-5 0  9996
2 35681  97.9345 174.8713 0001354  12.4813 347.6417 14.71689387440379
UK-DMC 2                
1 35683U 09041C   17285.38643230  .00000092  00000-0  22589-4 0  9992
2 35683  97.8183 159.5831 0001853  72.6892 287.4504 14.70986996440238
RISAT 1                 
1 38248U 12017A   17285.32168557  .00000382  00000-0  27941-4 0  9996
2 38248  97.5744 291.5134 0004993  21.7303  93.1030 15.09254039300905
DMC3-FM1                
1 40715U 15032A   17285.29676233  .00000053  00000-0  15863-4 0  9994
2 40715  98.0250 179.6722 0017155 119.2866 241.0052 14.73690359121442
DMC3-FM2                
1 40716U 15032B   17285.38736794  .00000067  00000-0  18037-4 0  9995
2 40716  98.0264 179.8635 0014142 126.5671 233.6824 14.73701620121461
DMC3-FM3                
1 40717U 15032C   17285.34229362  .00000045  00000-0  14659-4 0  9992
2 40717  98.0252 180.5564 0018119 120.8396 239.4584 14.73687327121451
